[Satellite]
VERSION=1.1
NAME=PRISM
NICKNAME=PRISM
TLE1=1 33493U 09002B   17186.22663118  .00000686  00000-0  67244-4 0  9992
TLE2=2 33493  98.1664  69.4212 0016128  27.7191 332.4913 14.95693355458470
